{
  "type": "FeatureCollection",
  "name": "India_Vulnerable_Infrastructure",
  "features": [
    {
      "type": "Feature",
      "properties": {
        "id": "HOSP-MNG-01",
        "name": "Mangalore City Trauma Center",
        "category": "HOSPITAL",
        "zone_id": "ZONE-01",
        "zone_name": "Mangalore Estuary",
        "state": "Karnataka",
        "ground_elevation_m": 1.1,
        "risk_tier": "CRITICAL_LOWLAND",
        "capacity": 350,
        "flood_cutoff_depth_m": 0.4,
        "clearance_m": null
      },
      "geometry": {
        "type": "Point",
        "coordinates": [
          74.845,
          12.864
        ]
      }
    },
    {
      "type": "Feature",
      "properties": {
        "id": "HOSP-MNG-02",
        "name": "Bolar Riverview Clinic",
        "category": "HOSPITAL",
        "zone_id": "ZONE-01",
        "zone_name": "Mangalore Estuary",
        "state": "Karnataka",
        "ground_elevation_m": 0.8,
        "risk_tier": "CRITICAL_LOWLAND",
        "capacity": 80,
        "flood_cutoff_depth_m": 0.25,
        "clearance_m": null
      },
      "geometry": {
        "type": "Point",
        "coordinates": [
          74.838,
          12.857
        ]
      }
    },
    {
      "type": "Feature",
      "properties": {
        "id": "BRG-MNG-01",
        "name": "NH-66 Netravati Bridge Lowland Approach",
        "category": "BRIDGE",
        "zone_id": "ZONE-01",
        "zone_name": "Mangalore Estuary",
        "state": "Karnataka",
        "ground_elevation_m": 0.7,
        "risk_tier": "CRITICAL_LOWLAND",
        "capacity": 0,
        "flood_cutoff_depth_m": 0.35,
        "clearance_m": 1.8
      },
      "geometry": {
        "type": "Point",
        "coordinates": [
          74.843,
          12.8615
        ]
      }
    },
    {
      "type": "Feature",
      "properties": {
        "id": "BRG-MNG-02",
        "name": "Bolar Old Railway Span",
        "category": "BRIDGE",
        "zone_id": "ZONE-01",
        "zone_name": "Mangalore Estuary",
        "state": "Karnataka",
        "ground_elevation_m": 0.6,
        "risk_tier": "CRITICAL_LOWLAND",
        "capacity": 0,
        "flood_cutoff_depth_m": 0.5,
        "clearance_m": 2.2
      },
      "geometry": {
        "type": "Point",
        "coordinates": [
          74.839,
          12.859
        ]
      }
    },
    {
      "type": "Feature",
      "properties": {
        "id": "PWR-MNG-01",
        "name": "Jeppu Power Grid 66kV Substation",
        "category": "POWER_SUBSTATION",
        "zone_id": "ZONE-01",
        "zone_name": "Mangalore Estuary",
        "state": "Karnataka",
        "ground_elevation_m": 0.9,
        "risk_tier": "CRITICAL_LOWLAND",
        "capacity": 0,
        "flood_cutoff_depth_m": 0.3,
        "clearance_m": null
      },
      "geometry": {
        "type": "Point",
        "coordinates": [
          74.841,
          12.858
        ]
      }
    },
    {
      "type": "Feature",
      "properties": {
        "id": "HOSP-UDP-01",
        "name": "Malpe Harbor Maritime Dispensary",
        "category": "HOSPITAL",
        "zone_id": "ZONE-02",
        "zone_name": "Udupi Lowland Swamps",
        "state": "Karnataka",
        "ground_elevation_m": 1.4,
        "risk_tier": "CRITICAL_LOWLAND",
        "capacity": 120,
        "flood_cutoff_depth_m": 0.35,
        "clearance_m": null
      },
      "geometry": {
        "type": "Point",
        "coordinates": [
          74.701,
          13.353
        ]
      }
    },
    {
      "type": "Feature",
      "properties": {
        "id": "BRG-UDP-01",
        "name": "Malpe Port Tidal Creek Causeway",
        "category": "BRIDGE",
        "zone_id": "ZONE-02",
        "zone_name": "Udupi Lowland Swamps",
        "state": "Karnataka",
        "ground_elevation_m": 1.0,
        "risk_tier": "CRITICAL_LOWLAND",
        "capacity": 0,
        "flood_cutoff_depth_m": 0.3,
        "clearance_m": 1.2
      },
      "geometry": {
        "type": "Point",
        "coordinates": [
          74.7042,
          13.3512
        ]
      }
    },
    {
      "type": "Feature",
      "properties": {
        "id": "HOSP-KOC-01",
        "name": "General Hospital West Kochi",
        "category": "HOSPITAL",
        "zone_id": "ZONE-03",
        "zone_name": "Kochi Backwaters",
        "state": "Kerala",
        "ground_elevation_m": 0.7,
        "risk_tier": "CRITICAL_LOWLAND",
        "capacity": 600,
        "flood_cutoff_depth_m": 0.3,
        "clearance_m": null
      },
      "geometry": {
        "type": "Point",
        "coordinates": [
          76.248,
          9.968
        ]
      }
    },
    {
      "type": "Feature",
      "properties": {
        "id": "HOSP-KOC-02",
        "name": "Mattancherry Community Health Center",
        "category": "HOSPITAL",
        "zone_id": "ZONE-03",
        "zone_name": "Kochi Backwaters",
        "state": "Kerala",
        "ground_elevation_m": 0.5,
        "risk_tier": "CRITICAL_LOWLAND",
        "capacity": 150,
        "flood_cutoff_depth_m": 0.2,
        "clearance_m": null
      },
      "geometry": {
        "type": "Point",
        "coordinates": [
          76.256,
          9.957
        ]
      }
    },
    {
      "type": "Feature",
      "properties": {
        "id": "BRG-KOC-01",
        "name": "Willingdon Island Canal Bridge",
        "category": "BRIDGE",
        "zone_id": "ZONE-03",
        "zone_name": "Kochi Backwaters",
        "state": "Kerala",
        "ground_elevation_m": 0.8,
        "risk_tier": "CRITICAL_LOWLAND",
        "capacity": 0,
        "flood_cutoff_depth_m": 0.4,
        "clearance_m": 1.5
      },
      "geometry": {
        "type": "Point",
        "coordinates": [
          76.252,
          9.962
        ]
      }
    },
    {
      "type": "Feature",
      "properties": {
        "id": "BRG-KOC-02",
        "name": "Thoppumpady BOT Bridge Span",
        "category": "BRIDGE",
        "zone_id": "ZONE-03",
        "zone_name": "Kochi Backwaters",
        "state": "Kerala",
        "ground_elevation_m": 1.2,
        "risk_tier": "CRITICAL_LOWLAND",
        "capacity": 0,
        "flood_cutoff_depth_m": 0.6,
        "clearance_m": 2.8
      },
      "geometry": {
        "type": "Point",
        "coordinates": [
          76.262,
          9.945
        ]
      }
    },
    {
      "type": "Feature",
      "properties": {
        "id": "PWR-KOC-01",
        "name": "Willingdon Island Transformer Substation",
        "category": "POWER_SUBSTATION",
        "zone_id": "ZONE-03",
        "zone_name": "Kochi Backwaters",
        "state": "Kerala",
        "ground_elevation_m": 0.6,
        "risk_tier": "CRITICAL_LOWLAND",
        "capacity": 0,
        "flood_cutoff_depth_m": 0.25,
        "clearance_m": null
      },
      "geometry": {
        "type": "Point",
        "coordinates": [
          76.25,
          9.96
        ]
      }
    },
    {
      "type": "Feature",
      "properties": {
        "id": "HOSP-CHN-01",
        "name": "Adyar Multi-Specialty Health Center",
        "category": "HOSPITAL",
        "zone_id": "ZONE-04",
        "zone_name": "Chennai Marina Lowlands",
        "state": "Tamil Nadu",
        "ground_elevation_m": 2.3,
        "risk_tier": "VULNERABLE_LOWLAND",
        "capacity": 400,
        "flood_cutoff_depth_m": 0.45,
        "clearance_m": null
      },
      "geometry": {
        "type": "Point",
        "coordinates": [
          80.252,
          13.008
        ]
      }
    },
    {
      "type": "Feature",
      "properties": {
        "id": "HOSP-CHN-02",
        "name": "Kotturpuram Urban Primary Health Post",
        "category": "HOSPITAL",
        "zone_id": "ZONE-04",
        "zone_name": "Chennai Marina Lowlands",
        "state": "Tamil Nadu",
        "ground_elevation_m": 1.8,
        "risk_tier": "VULNERABLE_LOWLAND",
        "capacity": 90,
        "flood_cutoff_depth_m": 0.25,
        "clearance_m": null
      },
      "geometry": {
        "type": "Point",
        "coordinates": [
          80.241,
          13.018
        ]
      }
    },
    {
      "type": "Feature",
      "properties": {
        "id": "BRG-CHN-01",
        "name": "Thiru Vi Ka Adyar Estuary Bridge",
        "category": "BRIDGE",
        "zone_id": "ZONE-04",
        "zone_name": "Chennai Marina Lowlands",
        "state": "Tamil Nadu",
        "ground_elevation_m": 1.9,
        "risk_tier": "VULNERABLE_LOWLAND",
        "capacity": 0,
        "flood_cutoff_depth_m": 0.8,
        "clearance_m": 3.2
      },
      "geometry": {
        "type": "Point",
        "coordinates": [
          80.257,
          13.011
        ]
      }
    },
    {
      "type": "Feature",
      "properties": {
        "id": "BRG-CHN-02",
        "name": "Saidapet Maraimalai Adigal Bridge",
        "category": "BRIDGE",
        "zone_id": "ZONE-04",
        "zone_name": "Chennai Marina Lowlands",
        "state": "Tamil Nadu",
        "ground_elevation_m": 2.2,
        "risk_tier": "VULNERABLE_LOWLAND",
        "capacity": 0,
        "flood_cutoff_depth_m": 0.6,
        "clearance_m": 2.5
      },
      "geometry": {
        "type": "Point",
        "coordinates": [
          80.222,
          13.019
        ]
      }
    },
    {
      "type": "Feature",
      "properties": {
        "id": "HOSP-VZG-01",
        "name": "Port Trust Central Hospital",
        "category": "HOSPITAL",
        "zone_id": "ZONE-05",
        "zone_name": "Visakhapatnam Harbor",
        "state": "Andhra Pradesh",
        "ground_elevation_m": 4.1,
        "risk_tier": "MODERATE_BUFFER",
        "capacity": 300,
        "flood_cutoff_depth_m": 0.6,
        "clearance_m": null
      },
      "geometry": {
        "type": "Point",
        "coordinates": [
          83.292,
          17.702
        ]
      }
    },
    {
      "type": "Feature",
      "properties": {
        "id": "BRG-VZG-01",
        "name": "Harbor Channel Causeway",
        "category": "BRIDGE",
        "zone_id": "ZONE-05",
        "zone_name": "Visakhapatnam Harbor",
        "state": "Andhra Pradesh",
        "ground_elevation_m": 2.8,
        "risk_tier": "VULNERABLE_LOWLAND",
        "capacity": 0,
        "flood_cutoff_depth_m": 0.5,
        "clearance_m": 2.1
      },
      "geometry": {
        "type": "Point",
        "coordinates": [
          83.298,
          17.698
        ]
      }
    },
    {
      "type": "Feature",
      "properties": {
        "id": "HOSP-MUM-01",
        "name": "Kurla Bhabha Municipal Hospital",
        "category": "HOSPITAL",
        "zone_id": "ZONE-06",
        "zone_name": "Mumbai Mithi Basin",
        "state": "Maharashtra",
        "ground_elevation_m": 2.2,
        "risk_tier": "VULNERABLE_LOWLAND",
        "capacity": 450,
        "flood_cutoff_depth_m": 0.35,
        "clearance_m": null
      },
      "geometry": {
        "type": "Point",
        "coordinates": [
          72.886,
          19.068
        ]
      }
    },
    {
      "type": "Feature",
      "properties": {
        "id": "BRG-MUM-01",
        "name": "Bandra-Kurla Mithi River Bridge",
        "category": "BRIDGE",
        "zone_id": "ZONE-06",
        "zone_name": "Mumbai Mithi Basin",
        "state": "Maharashtra",
        "ground_elevation_m": 1.8,
        "risk_tier": "VULNERABLE_LOWLAND",
        "capacity": 0,
        "flood_cutoff_depth_m": 0.5,
        "clearance_m": 2.4
      },
      "geometry": {
        "type": "Point",
        "coordinates": [
          72.868,
          19.064
        ]
      }
    },
    {
      "type": "Feature",
      "properties": {
        "id": "HOSP-KOL-01",
        "name": "Garden Reach Maternity & Trauma Post",
        "category": "HOSPITAL",
        "zone_id": "ZONE-07",
        "zone_name": "Kolkata Hooghly Estuary",
        "state": "West Bengal",
        "ground_elevation_m": 1.9,
        "risk_tier": "VULNERABLE_LOWLAND",
        "capacity": 220,
        "flood_cutoff_depth_m": 0.3,
        "clearance_m": null
      },
      "geometry": {
        "type": "Point",
        "coordinates": [
          88.305,
          22.541
        ]
      }
    },
    {
      "type": "Feature",
      "properties": {
        "id": "BRG-KOL-01",
        "name": "Kidderpore Tidal Lock Bridge",
        "category": "BRIDGE",
        "zone_id": "ZONE-07",
        "zone_name": "Kolkata Hooghly Estuary",
        "state": "West Bengal",
        "ground_elevation_m": 1.6,
        "risk_tier": "VULNERABLE_LOWLAND",
        "capacity": 0,
        "flood_cutoff_depth_m": 0.4,
        "clearance_m": 1.6
      },
      "geometry": {
        "type": "Point",
        "coordinates": [
          88.324,
          22.543
        ]
      }
    },
    {
      "type": "Feature",
      "properties": {
        "id": "HOSP-PRI-01",
        "name": "Puri Coastal District Hospital",
        "category": "HOSPITAL",
        "zone_id": "ZONE-08",
        "zone_name": "Puri Coastal Plain",
        "state": "Odisha",
        "ground_elevation_m": 2.4,
        "risk_tier": "VULNERABLE_LOWLAND",
        "capacity": 300,
        "flood_cutoff_depth_m": 0.4,
        "clearance_m": null
      },
      "geometry": {
        "type": "Point",
        "coordinates": [
          85.825,
          19.808
        ]
      }
    },
    {
      "type": "Feature",
      "properties": {
        "id": "BRG-PRI-01",
        "name": "Musi River Coastal Culvert Bridge",
        "category": "BRIDGE",
        "zone_id": "ZONE-08",
        "zone_name": "Puri Coastal Plain",
        "state": "Odisha",
        "ground_elevation_m": 1.9,
        "risk_tier": "VULNERABLE_LOWLAND",
        "capacity": 0,
        "flood_cutoff_depth_m": 0.45,
        "clearance_m": 1.9
      },
      "geometry": {
        "type": "Point",
        "coordinates": [
          85.835,
          19.815
        ]
      }
    }
  ]
}